INTELSAT 23 (IS-23)     
1 38867U 12057A   26181.78983916 -.00000274  00000+0  00000+0 0  9998
2 38867   0.0161  16.6767 0000216 194.3505 299.1763  1.00268552 50091
FM-6                    
1 39360U 13058A   26181.51299587 -.00000005  00000+0  00000+0 0  9996
2 39360   0.0208  53.0281 0001820 128.0985 165.8183  1.00271303 46207
INTELSAT 30 (IS-30)     
1 40271U 14062A   26180.84157992 -.00000140  00000+0  00000+0 0  9993
2 40271   0.0193  43.7532 0001603 346.9405  95.1444  1.00272441  6929
DIRECTV 14              
1 40333U 14078B   26181.59747557 -.00000115  00000+0  00000+0 0  9996
2 40333   0.0112  26.7471 0000405 352.9297  14.8397  1.00270222 42174
DIRECTV 15              
1 40663U 15026A   26181.68526399 -.00000092  00000+0  00000+0 0  9999
2 40663   0.0145  48.4468 0000541 358.3935  15.7337  1.00269720 40592
SKY MEXICO-1            
1 40664U 15026B   26181.57066000 -.00000224  00000+0  00000+0 0  9993
2 40664   0.0188  21.5610 0002657  95.6845 288.0277  1.00270979 40587
INTELSAT 34 (IS-34)     
1 40874U 15039A   26181.78940582 -.00000275  00000+0  00000+0 0  9995
2 40874   0.0113 350.8979 0000577  44.1912 112.4540  1.00270283 39777
INTELSAT 31 (IS-31)     
1 41581U 16035A   26181.63895119 -.00000140  00000+0  00000+0 0  9998
2 41581   0.0213 275.8862 0000635   9.6314 128.1542  1.00270311 36818
INTELSAT 36 (IS-36)     
1 41747U 16053A   26181.90183625 -.00000014  00000+0  00000+0 0  9994
2 41747   0.0100  15.4066 0002122 334.3387 322.3814  1.00270569 36097
INTELSAT 32E (IS-32E)   
1 41945U 17007B   26180.50866479  .00000000  00000+0  00000+0 0  9998
2 41945   0.0243  13.6582 0000889 344.8527  59.0307  1.00268307 34342
INTELSAT 35E (IS-35E)   
1 42818U 17041A   26181.79356584  .00000000  00000+0  00000+0 0  9999
2 42818   0.0224  23.6594 0002308  75.9559  70.4225  1.00267453 32952
INTELSAT 37E (IS-37E)   
1 42950U 17059A   26181.94975753  .00000000  00000+0  00000+0 0  9997
2 42950   0.0249  34.9543 0002886  68.7810 139.1811  1.00268274 32200
AZERSPACE 2 (IS-38)     
1 43632U 18074A   26181.89628159  .00000000  00000+0  00000+0 0  9992
2 43632   0.0248  30.3862 0001659  74.0928 182.2483  1.00270136 28588
HORIZONS-3E             
1 43633U 18074B   26180.69323295 -.00000019  00000+0  00000+0 0  9994
2 43633   0.0212 193.1190 0000455  97.6770  45.5517  1.00271768 28469
AT&T T-16               
1 44333U 19034A   26181.59747556 -.00000104  00000+0  00000+0 0  9994
2 44333   0.0167  60.3335 0000368 271.7919  60.7611  1.00269159 25760
INTELSAT 39 (IS-39)     
1 44476U 19049B   26181.95789123  .00000000  00000+0  00000+0 0  9998
2 44476   0.0207  25.1763 0000958 342.8628 317.7797  1.00272661 25266
GALAXY 30 (G-30)        
1 46114U 20056C   26181.60722859  .00000047  00000+0  00000+0 0  9995
2 46114   0.0177  29.8448 0002259  67.0191 275.3998  1.00272760 21427
GALAXY 33 (G-33)        
1 54026U 22128A   26181.70271906  .00000089  00000+0  00000+0 0  9997
2 54026   0.0151  14.5426 0002070  82.5209 301.6861  1.00272821 13870
GALAXY 34 (G-34)        
1 54027U 22128B   26181.70349907  .00000000  00000+0  00000+0 0  9998
2 54027   0.0275  18.0703 0001918  90.3855 294.5804  1.00274607 14040
GALAXY 31 (G-31)        
1 54243U 22153A   26181.77008008  .00000024  00000+0  00000+0 0  9993
2 54243   0.0161  55.9019 0001612  40.0778 339.0726  1.00271877  7261
GALAXY 32 (G-32)        
1 54244U 22153B   26180.57044943 -.00000163  00000+0  00000+0 0  9994
2 54244   0.0109  21.8148 0002017  29.7185 340.4784  1.00271332 13268
GALAXY 35 (G-35)        
1 54741U 22170A   26181.59467363  .00000000  00000+0  00000+0 0  9992
2 54741   0.0240  48.7434 0002187  51.3617 299.5220  1.00268564 13027
GALAXY 36 (G-36)        
1 54742U 22170B   26181.78269069 -.00000174  00000+0  00000+0 0  9990
2 54742   0.0165 189.4663 0002852 264.5378  17.6066  1.00270767 12914
GALAXY 37 (G-37)        
1 57493U 23112A   26181.70375907  .00000059  00000+0  00000+0 0  9995
2 57493   0.0159 328.8393 0002144 130.8151 305.4668  1.00271214 10675
