OBJECT_NAME,OBJECT_ID,EPOCH,MEAN_MOTION,ECCENTRICITY,INCLINATION,RA_OF_ASC_NODE,ARG_OF_PERICENTER,MEAN_ANOMALY,EPHEMERIS_TYPE,CLASSIFICATION_TYPE,NORAD_CAT_ID,ELEMENT_SET_NO,REV_AT_EPOCH,BSTAR,MEAN_MOTION_DOT,MEAN_MOTION_DDOT
INTELSAT 23 (IS-23),2012-057A,2026-06-30T18:57:22.103424,1.00268552,.00002161,0.0161,16.6767,194.3505,299.1763,0,U,38867,999,5009,0,-.274E-5,0
FM-6,2013-058A,2026-06-30T12:18:42.843168,1.00271303,.00018206,0.0208,53.0281,128.0985,165.8183,0,U,39360,999,4620,0,-.5E-7,0
INTELSAT 30 (IS-30),2014-062A,2026-06-29T20:11:52.505088,1.00272441,.00016035,0.0193,43.7532,346.9405,95.1444,0,U,40271,999,692,0,-.14E-5,0
DIRECTV 14,2014-078B,2026-06-30T14:20:21.889248,1.00270222,.00004056,0.0112,26.7471,352.9297,14.8397,0,U,40333,999,4217,0,-.115E-5,0
DIRECTV 15,2015-026A,2026-06-30T16:26:46.808736,1.00269720,.00005417,0.0145,48.4468,358.3935,15.7337,0,U,40663,999,4059,0,-.92E-6,0
SKY MEXICO-1,2015-026B,2026-06-30T13:41:45.024000,1.00270979,.00026577,0.0188,21.5610,95.6845,288.0277,0,U,40664,999,4058,0,-.224E-5,0
INTELSAT 34 (IS-34),2015-039A,2026-06-30T18:56:44.662848,1.00270283,.00005771,0.0113,350.8979,44.1912,112.4540,0,U,40874,999,3977,0,-.275E-5,0
INTELSAT 31 (IS-31),2016-035A,2026-06-30T15:20:05.382816,1.00270311,.0000635,0.0213,275.8862,9.6314,128.1542,0,U,41581,999,3681,0,-.14E-5,0
INTELSAT 36 (IS-36),2016-053A,2026-06-30T21:38:38.652000,1.00270569,.0002122,0.0100,15.4066,334.3387,322.3814,0,U,41747,999,3609,0,-.14E-6,0
INTELSAT 32E (IS-32E),2017-007B,2026-06-29T12:12:28.637856,1.00268307,.0000889,0.0243,13.6582,344.8527,59.0307,0,U,41945,999,3434,0,0,0
INTELSAT 35E (IS-35E),2017-041A,2026-06-30T19:02:44.088576,1.00267453,.0002308,0.0224,23.6594,75.9559,70.4225,0,U,42818,999,3295,0,0,0
INTELSAT 37E (IS-37E),2017-059A,2026-06-30T22:47:39.050592,1.00268274,.00028862,0.0249,34.9543,68.7810,139.1811,0,U,42950,999,3220,0,0,0
AZERSPACE 2 (IS-38),2018-074A,2026-06-30T21:30:38.729376,1.00270136,.00016591,0.0248,30.3862,74.0928,182.2483,0,U,43632,999,2858,0,0,0
HORIZONS-3E,2018-074B,2026-06-29T16:38:15.326880,1.00271768,.00004557,0.0212,193.1190,97.6770,45.5517,0,U,43633,999,2846,0,-.19E-6,0
AT&T T-16,2019-034A,2026-06-30T14:20:21.888384,1.00269159,.00003681,0.0167,60.3335,271.7919,60.7611,0,U,44333,999,2576,0,-.104E-5,0
INTELSAT 39 (IS-39),2019-049B,2026-06-30T22:59:21.802272,1.00272661,.0000958,0.0207,25.1763,342.8628,317.7797,0,U,44476,999,2526,0,0,0
GALAXY 30 (G-30),2020-056C,2026-06-30T14:34:24.550176,1.00272760,.00022594,0.0177,29.8448,67.0191,275.3998,0,U,46114,999,2142,0,.47E-6,0
GALAXY 33 (G-33),2022-128A,2026-06-30T16:51:54.926784,1.00272821,.00020707,0.0151,14.5426,82.5209,301.6861,0,U,54026,999,1387,0,.89E-6,0
GALAXY 34 (G-34),2022-128B,2026-06-30T16:53:02.319648,1.00274607,.00019188,0.0275,18.0703,90.3855,294.5804,0,U,54027,999,1404,0,0,0
GALAXY 31 (G-31),2022-153A,2026-06-30T18:28:54.918912,1.00271877,.00016126,0.0161,55.9019,40.0778,339.0726,0,U,54243,999,726,0,.24E-6,0
GALAXY 32 (G-32),2022-153B,2026-06-29T13:41:26.830752,1.00271332,.00020175,0.0109,21.8148,29.7185,340.4784,0,U,54244,999,1326,0,-.163E-5,0
GALAXY 35 (G-35),2022-170A,2026-06-30T14:16:19.801632,1.00268564,.00021873,0.0240,48.7434,51.3617,299.5220,0,U,54741,999,1302,0,0,0
GALAXY 36 (G-36),2022-170B,2026-06-30T18:47:04.475616,1.00270767,.00028526,0.0165,189.4663,264.5378,17.6066,0,U,54742,999,1291,0,-.174E-5,0
GALAXY 37 (G-37),2023-112A,2026-06-30T16:53:24.783648,1.00271214,.00021444,0.0159,328.8393,130.8151,305.4668,0,U,57493,999,1067,0,.59E-6,0
